ORBCOMM FM103           
1 40091U 14040F   24122.09919023  .00000944  00000+0  24747-3 0  9990
2 40091  47.0042 161.5361 0002153 216.3540 143.7198 14.56535671521057
ORBCOMM FM114           
1 41179U 15081A   24122.27011648  .00001328  00000+0  33272-3 0  9990
2 41179  47.0019  70.0153 0002133 267.0941  92.9699 14.56559077444431
ORBCOMM FM119           
1 41180U 15081B   24121.96563135  .00001028  00000+0  26617-3 0  9992
2 41180  47.0006 340.6400 0001688 304.8368  55.2358 14.56524026445595
ORBCOMM FM105           
1 41181U 15081C   24122.20638172  .00000619  00000+0  22355-3 0  9995
2 41181  47.0014 305.5711 0002317 270.7957  89.2657 14.44356242441286
ORBCOMM FM110           
1 41182U 15081D   24121.56137321  .00001154  00000+0  29410-3 0  9998
2 41182  47.0008  72.7627 0001375  51.3447 308.7560 14.56546639444154
ORBCOMM FM118           
1 41183U 15081E   24122.22462945  .00001235  00000+0  31217-3 0  9994
2 41183  47.0043  69.9418 0001435  52.7696 307.3320 14.56536209444430
ORBCOMM FM112           
1 41184U 15081F   24122.21754518  .00001265  00000+0  31863-3 0  9994
2 41184  46.9990 338.6745 0001442 287.2094  72.8633 14.56561786445625
ORBCOMM FM113           
1 41185U 15081G   24121.92030440  .00001403  00000+0  34929-3 0  9993
2 41185  47.0008 340.3390 0001088 300.1551  59.9226 14.56555747445515
